{
"type": "FeatureCollection",
"name": "roads",
"crs": { "type": "name", "properties": { "name": "urn:ogc:def:crs:EPSG::5234" } },
"features": [
{ "type": "Feature", "properties": { "Id": 0, "Name": null, "layer": "Minor Roads", "path": "C:/Users/GAMER/Desktop/Shape Files to Submit/Minor Roads.shp" }, "geometry": { "type": "MultiLineString", "coordinates": [ [ [ 246853.50567626953125, 179990.98907470703125 ], [ 246826.44189453125, 180115.4822998046875 ], [ 246885.98211669921875, 180202.08612060546875 ], [ 246923.87127685546875, 180245.38812255859375 ], [ 247021.30072021484375, 180288.69012451171875 ], [ 247102.49188232421875, 180326.57928466796875 ], [ 247145.79388427734375, 180418.59613037109375 ], [ 247178.2705078125, 180510.6126708984375 ], [ 247178.2705078125, 180613.45489501953125 ], [ 247210.74688720703125, 180732.5352783203125 ], [ 247254.04888916015625, 180976.10888671875 ], [ 247281.11248779296875, 181062.712890625 ], [ 247383.95489501953125, 181149.31689453125 ], [ 247492.209716796875, 181214.26971435546875 ], [ 247681.6558837890625, 181311.69927978515625 ], [ 247735.7833251953125, 181349.5885009765625 ] ], [ [ 248563.9334716796875, 180093.831298828125 ], [ 248525.48931884765625, 180070.2454833984375 ], [ 248494.662109375, 180049.694091796875 ], [ 248459.9813232421875, 180012.44451904296875 ], [ 248453.55889892578125, 179998.3153076171875 ] ], [ [ 248563.9334716796875, 180093.831298828125 ], [ 248593.5662841796875, 180152.45172119140625 ], [ 248646.2294921875, 180202.54608154296875 ], [ 248679.62567138671875, 180262.91607666015625 ], [ 248713.02191162109375, 180302.73468017578125 ], [ 248742.564697265625, 180342.55328369140625 ], [ 248778.5299072265625, 180438.88848876953125 ], [ 248820.91748046875, 180535.223876953125 ], [ 248939.3582763671875, 180818.40631103515625 ], [ 248989.8773193359375, 180934.7802734375 ], [ 249017.279296875, 181007.85247802734375 ], [ 249044.82452392578125, 181033.2789306640625 ] ], [ [ 249044.82452392578125, 181033.2789306640625 ], [ 249090.8472900390625, 180905.706298828125 ], [ 249139.5618896484375, 180848.872314453125 ], [ 249172.03851318359375, 180804.21728515625 ], [ 249200.455322265625, 180735.2047119140625 ], [ 249236.99127197265625, 180658.0731201171875 ], [ 249306.00390625, 180568.7626953125 ], [ 249330.361328125, 180520.048095703125 ], [ 249362.83770751953125, 180455.0950927734375 ], [ 249407.492919921875, 180386.08251953125 ], [ 249448.0885009765625, 180329.24871826171875 ], [ 249504.92230224609375, 180268.35528564453125 ], [ 249582.05389404296875, 180227.75970458984375 ], [ 249610.47088623046875, 180199.3428955078125 ], [ 249638.88787841796875, 180138.44927978515625 ], [ 249679.4832763671875, 180057.25830078125 ], [ 249695.7216796875, 179980.12652587890625 ] ], [ [ 249044.82452392578125, 181033.2789306640625 ], [ 249096.440673828125, 181080.92449951171875 ], [ 249114.70867919921875, 181153.99652099609375 ], [ 249154.28948974609375, 181205.75592041015625 ], [ 249193.8701171875, 181294.05133056640625 ], [ 249224.31689453125, 181373.212890625 ], [ 249297.388916015625, 181449.32952880859375 ], [ 249364.3717041015625, 181552.84832763671875 ], [ 249397.8629150390625, 181625.9202880859375 ], [ 249428.3096923828125, 181711.17108154296875 ], [ 249458.75628662109375, 181799.4666748046875 ], [ 249477.02447509765625, 181878.62811279296875 ] ], [ [ 249044.82452392578125, 181033.2789306640625 ], [ 248966.94488525390625, 181158.24432373046875 ], [ 248918.2301025390625, 181239.43548583984375 ], [ 248816.7410888671875, 181361.2222900390625 ], [ 248776.1455078125, 181426.17529296875 ], [ 248735.5499267578125, 181519.54510498046875 ], [ 248686.8350830078125, 181625.09368896484375 ], [ 248699.013916015625, 181710.344482421875 ], [ 248690.89471435546875, 181771.2376708984375 ], [ 248686.8350830078125, 181856.488525390625 ], [ 248687.2808837890625, 181975.970703125 ] ], [ [ 247735.7833251953125, 181349.5885009765625 ], [ 247784.49810791015625, 181295.46087646484375 ], [ 247806.14910888671875, 181219.6824951171875 ], [ 247871.1019287109375, 181122.25311279296875 ], [ 247925.2294921875, 181013.99810791015625 ], [ 247968.531494140625, 180932.806884765625 ], [ 248022.65887451171875, 180846.202880859375 ], [ 248071.37347412109375, 180786.6627197265625 ], [ 248125.5010986328125, 180705.4716796875 ], [ 248185.04132080078125, 180591.80389404296875 ], [ 248222.93048095703125, 180521.43829345703125 ], [ 248260.8197021484375, 180429.4215087890625 ], [ 248320.35992431640625, 180315.75390625 ], [ 248379.90008544921875, 180223.73712158203125 ], [ 248461.09130859375, 180191.26068115234375 ], [ 248563.9334716796875, 180093.831298828125 ] ], [ [ 247735.7833251953125, 181349.5885009765625 ], [ 247721.356689453125, 181457.9541015625 ], [ 247725.41607666015625, 181526.96649169921875 ], [ 247766.01190185546875, 181600.0386962890625 ], [ 247790.36907958984375, 181640.63427734375 ], [ 247851.26251220703125, 181669.05108642578125 ], [ 247920.27508544921875, 181713.706298828125 ], [ 248013.6448974609375, 181766.48052978515625 ], [ 248167.9083251953125, 181798.95709228515625 ], [ 248342.46929931640625, 181839.55267333984375 ], [ 248521.08990478515625, 181876.08868408203125 ], [ 248687.2808837890625, 181975.970703125 ] ], [ [ 249477.02447509765625, 181878.62811279296875 ], [ 249428.3096923828125, 181839.04730224609375 ], [ 249382.63970947265625, 181829.913330078125 ], [ 249340.0142822265625, 181839.04730224609375 ] ], [ [ 249477.02447509765625, 181878.62811279296875 ], [ 249629.25787353515625, 181966.92352294921875 ], [ 249702.330078125, 182003.45947265625 ], [ 249772.35748291015625, 182067.39752197265625 ], [ 249787.5806884765625, 182149.60369873046875 ], [ 249814.98272705078125, 182243.98828125 ], [ 249842.3848876953125, 182341.41790771484375 ], [ 249869.78692626953125, 182441.89190673828125 ], [ 249881.96551513671875, 182518.00872802734375 ], [ 249903.278076171875, 182594.12548828125 ], [ 249912.41229248046875, 182667.197509765625 ], [ 249942.85888671875, 182767.67169189453125 ], [ 249994.6182861328125, 182840.74371337890625 ], [ 250049.42230224609375, 182874.235107421875 ], [ 250052.46710205078125, 182871.19049072265625 ] ], [ [ 249477.02447509765625, 181878.62811279296875 ], [ 249422.22027587890625, 181945.6107177734375 ], [ 249367.41632080078125, 181985.1915283203125 ], [ 249330.88031005859375, 182046.08489990234375 ], [ 249303.47808837890625, 182189.184326171875 ], [ 249306.52288818359375, 182234.8544921875 ], [ 249294.34429931640625, 182286.61370849609375 ], [ 249294.34429931640625, 182350.5518798828125 ], [ 249285.2100830078125, 182426.668701171875 ], [ 249276.0762939453125, 182493.65130615234375 ], [ 249257.80810546875, 182545.41070556640625 ], [ 249254.76348876953125, 182594.12548828125 ], [ 249257.80810546875, 182655.0189208984375 ], [ 249273.031494140625, 182725.04632568359375 ], [ 249257.80810546875, 182752.44830322265625 ], [ 249233.45068359375, 182816.38629150390625 ], [ 249218.22747802734375, 182892.50311279296875 ], [ 249221.2720947265625, 182968.619873046875 ], [ 249206.04888916015625, 183047.78131103515625 ], [ 249190.82550048828125, 183099.54071044921875 ], [ 249169.5126953125, 183172.6126708984375 ], [ 249154.28948974609375, 183224.3720703125 ], [ 249160.37872314453125, 183279.17608642578125 ], [ 249166.46807861328125, 183333.98028564453125 ], [ 249178.646728515625, 183410.096923828125 ], [ 249193.8701171875, 183461.8563232421875 ], [ 249187.78070068359375, 183531.88372802734375 ], [ 249154.28948974609375, 183705.42987060546875 ], [ 249148.2000732421875, 183763.2786865234375 ], [ 249160.37872314453125, 183815.0380859375 ], [ 249163.42327880859375, 183866.7974853515625 ], [ 249157.3341064453125, 183945.95892333984375 ], [ 249129.93212890625, 184019.0308837890625 ], [ 249126.8873291015625, 184070.790283203125 ], [ 249129.93212890625, 184125.594482421875 ], [ 249129.93212890625, 184183.443115234375 ], [ 249126.8873291015625, 184311.31927490234375 ], [ 249117.7532958984375, 184366.123291015625 ], [ 249065.993896484375, 184454.418701171875 ], [ 249023.3685302734375, 184515.31207275390625 ], [ 248953.34112548828125, 184588.38427734375 ], [ 248944.207275390625, 184643.18829345703125 ], [ 248950.2965087890625, 184697.9923095703125 ], [ 248974.6539306640625, 184743.6624755859375 ], [ 249014.23468017578125, 184853.2705078125 ], [ 249017.279296875, 184911.11932373046875 ], [ 249038.5919189453125, 184990.28070068359375 ], [ 249059.90472412109375, 185045.084716796875 ], [ 249078.1727294921875, 185130.33551025390625 ], [ 249078.1727294921875, 185194.27349853515625 ], [ 249099.48529052734375, 185288.6583251953125 ], [ 249102.53009033203125, 185361.73028564453125 ], [ 249111.66412353515625, 185446.9810791015625 ], [ 249102.53009033203125, 185520.05328369140625 ], [ 249056.85992431640625, 185675.33148193359375 ], [ 249038.5919189453125, 185760.58209228515625 ], [ 249050.77069091796875, 185833.654296875 ], [ 249065.993896484375, 185937.173095703125 ], [ 249078.1727294921875, 185973.7091064453125 ], [ 249065.993896484375, 186022.4237060546875 ], [ 249041.636474609375, 186107.67449951171875 ] ], [ [ 248687.2808837890625, 181975.970703125 ], [ 248707.065673828125, 182098.010498046875 ], [ 248720.79327392578125, 182167.37188720703125 ], [ 248721.51593017578125, 182235.288330078125 ], [ 248708.51068115234375, 182329.93768310546875 ], [ 248683.08868408203125, 182439.11767578125 ], [ 248673.95489501953125, 182496.205078125 ], [ 248660.25372314453125, 182589.82867431640625 ], [ 248660.25372314453125, 182694.869873046875 ], [ 248655.6868896484375, 182804.47808837890625 ], [ 248694.50628662109375, 182959.75628662109375 ], [ 248737.89288330078125, 183115.0343017578125 ], [ 248751.5938720703125, 183213.22491455078125 ], [ 248654.02349853515625, 183357.9312744140625 ], [ 248626.62152099609375, 183387.61688232421875 ], [ 248578.66790771484375, 183465.25592041015625 ], [ 248539.84832763671875, 183499.50848388671875 ], [ 248489.611328125, 183529.194091796875 ], [ 248453.0753173828125, 183583.99810791015625 ], [ 248453.0753173828125, 183643.36907958984375 ], [ 248462.20928955078125, 183711.87432861328125 ], [ 248453.0753173828125, 183782.66290283203125 ], [ 248432.523681640625, 183871.719482421875 ], [ 248398.27130126953125, 183949.3585205078125 ], [ 248357.16827392578125, 184011.01312255859375 ], [ 248297.797119140625, 184042.98211669921875 ], [ 248222.4415283203125, 184079.51812744140625 ], [ 248169.92108154296875, 184116.0540771484375 ], [ 248144.802490234375, 184159.440673828125 ], [ 248126.53448486328125, 184221.09527587890625 ], [ 248117.4005126953125, 184326.136474609375 ], [ 248110.5499267578125, 184501.96612548828125 ], [ 248096.848876953125, 184613.85772705078125 ], [ 248096.848876953125, 184707.4813232421875 ], [ 248110.5499267578125, 184798.8212890625 ], [ 248142.5189208984375, 184860.47589111328125 ], [ 248181.3385009765625, 184928.9810791015625 ], [ 248222.4415283203125, 185004.33648681640625 ], [ 248251.27947998046875, 185215.24627685546875 ], [ 248270.1182861328125, 185276.90069580078125 ], [ 248288.957275390625, 185364.24468994140625 ], [ 248288.957275390625, 185468.71490478515625 ], [ 248273.543701171875, 185544.07049560546875 ], [ 248309.5089111328125, 185612.57568359375 ], [ 248348.8992919921875, 185667.37969970703125 ], [ 248366.0255126953125, 185701.632080078125 ], [ 248379.72650146484375, 185776.9876708984375 ], [ 248398.56549072265625, 185847.20550537109375 ], [ 248713.30810546875, 186106.00250244140625 ] ], [ [ 244048.96990966796875, 184603.97412109375 ], [ 243950.779296875, 184576.57208251953125 ], [ 243911.95989990234375, 184553.73712158203125 ], [ 243870.856689453125, 184553.73712158203125 ] ], [ [ 244048.96990966796875, 184603.97412109375 ], [ 244144.8770751953125, 184665.62872314453125 ], [ 244206.53167724609375, 184681.61309814453125 ], [ 244304.7222900390625, 184670.1956787109375 ], [ 244418.89727783203125, 184642.793701171875 ], [ 244482.83551025390625, 184613.10809326171875 ], [ 244530.2977294921875, 184606.5941162109375 ] ], [ [ 241083.0386962890625, 184991.5775146484375 ], [ 241007.26007080078125, 184926.62451171875 ], [ 240953.1326904296875, 184877.90972900390625 ], [ 240915.2435302734375, 184834.60791015625 ], [ 240904.41790771484375, 184758.82928466796875 ], [ 240920.65631103515625, 184693.87628173828125 ], [ 240888.1796875, 184569.38330078125 ], [ 240823.2266845703125, 184531.49407958984375 ], [ 240758.273681640625, 184499.01751708984375 ], [ 240709.55908203125, 184488.19207763671875 ], [ 240622.955078125, 184477.36651611328125 ], [ 240568.82769775390625, 184461.1282958984375 ], [ 240503.87469482421875, 184423.23907470703125 ], [ 240476.81109619140625, 184379.93707275390625 ], [ 240455.16009521484375, 184352.87347412109375 ], [ 240341.4923095703125, 184320.39691162109375 ], [ 240325.25408935546875, 184298.74591064453125 ], [ 240287.36492919921875, 184271.68212890625 ], [ 240244.06292724609375, 184233.79290771484375 ], [ 240179.10992431640625, 184217.5546875 ], [ 240141.220703125, 184212.14190673828125 ], [ 240092.50592041015625, 184217.5546875 ], [ 240070.8551025390625, 184239.2056884765625 ], [ 239995.07647705078125, 184293.3331298828125 ] ], [ [ 241083.0386962890625, 184991.5775146484375 ], [ 241158.055908203125, 185035.55609130859375 ], [ 241235.69488525390625, 185092.6436767578125 ], [ 241347.58648681640625, 185129.1796875 ], [ 241438.92669677734375, 185147.44769287109375 ], [ 241562.23590087890625, 185181.7000732421875 ], [ 241637.59149169921875, 185202.251708984375 ], [ 241756.33349609375, 185222.80328369140625 ], [ 241797.4365234375, 185202.251708984375 ], [ 241847.6737060546875, 185188.55072021484375 ], [ 241902.47772216796875, 185186.26727294921875 ], [ 241961.84869384765625, 185199.96807861328125 ], [ 242014.36932373046875, 185213.6693115234375 ], [ 242066.889892578125, 185186.26727294921875 ], [ 242137.67852783203125, 185145.16412353515625 ], [ 242176.4979248046875, 185106.344482421875 ], [ 242204.50030517578125, 185095.57452392578125 ] ], [ [ 241023.49847412109375, 185051.11767578125 ], [ 241000.49432373046875, 184983.0355224609375 ], [ 240993.6436767578125, 184962.48388671875 ], [ 240950.257080078125, 184930.514892578125 ] ], [ [ 241023.49847412109375, 185051.11767578125 ], [ 241083.0386962890625, 184991.5775146484375 ] ], [ [ 241023.49847412109375, 185051.11767578125 ], [ 240953.1326904296875, 185078.1815185546875 ], [ 240909.8306884765625, 185132.30889892578125 ], [ 240877.35430908203125, 185224.32550048828125 ], [ 240904.41790771484375, 185300.1041259765625 ], [ 240947.71990966796875, 185392.1207275390625 ], [ 240974.78369140625, 185473.3118896484375 ], [ 240931.481689453125, 185549.09027099609375 ], [ 240871.9415283203125, 185603.2178955078125 ], [ 240888.1796875, 185711.47271728515625 ], [ 240817.8140869140625, 185722.29827880859375 ], [ 240763.6865234375, 185754.77471923828125 ], [ 240671.669921875, 185781.8385009765625 ], [ 240612.12969970703125, 185841.37872314453125 ], [ 240585.06591796875, 185911.74432373046875 ], [ 240568.82769775390625, 185987.52288818359375 ], [ 240465.9854736328125, 186057.88848876953125 ], [ 240390.20709228515625, 186128.2542724609375 ], [ 240281.95208740234375, 186285.223876953125 ], [ 240184.522705078125, 186377.240478515625 ], [ 240005.902099609375, 186523.38470458984375 ], [ 240038.37847900390625, 186366.41510009765625 ], [ 240043.79132080078125, 186306.8748779296875 ], [ 240005.902099609375, 186160.730712890625 ] ], [ [ 242204.50030517578125, 185095.57452392578125 ], [ 242190.1990966796875, 184983.0355224609375 ], [ 242213.03411865234375, 184916.81390380859375 ], [ 242229.01849365234375, 184811.77288818359375 ], [ 242249.57012939453125, 184713.582275390625 ], [ 242256.42047119140625, 184642.793701171875 ], [ 242258.7041015625, 184560.5875244140625 ], [ 242249.57012939453125, 184469.24749755859375 ], [ 242224.45147705078125, 184382.47430419921875 ], [ 242208.46710205078125, 184323.103271484375 ], [ 242178.781494140625, 184243.18072509765625 ], [ 242142.2454833984375, 184186.09307861328125 ], [ 242117.12689208984375, 184124.4384765625 ], [ 242101.14227294921875, 183978.29449462890625 ], [ 242103.4259033203125, 183973.72747802734375 ], [ 242114.843505859375, 183962.30987548828125 ] ], [ [ 242204.50030517578125, 185095.57452392578125 ], [ 242235.86907958984375, 185083.509521484375 ], [ 242279.25567626953125, 185083.509521484375 ], [ 242313.50811767578125, 185078.9425048828125 ], [ 242416.26568603515625, 185053.8240966796875 ], [ 242487.0543212890625, 185035.55609130859375 ], [ 242626.347900390625, 184957.9168701171875 ], [ 242688.00250244140625, 184912.24688720703125 ], [ 242756.5076904296875, 184900.82928466796875 ], [ 242827.29608154296875, 184875.71087646484375 ], [ 242888.95068359375, 184834.60791015625 ], [ 242916.35272216796875, 184809.48931884765625 ], [ 242989.4249267578125, 184770.669677734375 ], [ 243060.2135009765625, 184752.40167236328125 ], [ 243115.01751708984375, 184775.2366943359375 ], [ 243363.9193115234375, 184818.623291015625 ], [ 243578.5684814453125, 184862.0098876953125 ], [ 243665.34149169921875, 184871.1439208984375 ], [ 243768.09912109375, 184868.86029052734375 ], [ 243825.18670654296875, 184848.30889892578125 ], [ 243889.1248779296875, 184798.07171630859375 ], [ 243923.3773193359375, 184743.2677001953125 ], [ 243985.03192138671875, 184677.04608154296875 ], [ 244026.1348876953125, 184629.092529296875 ], [ 244048.96990966796875, 184603.97412109375 ] ], [ [ 249670.8660888671875, 187362.77947998046875 ], [ 249707.40228271484375, 187265.35009765625 ], [ 249743.93829345703125, 187196.3375244140625 ], [ 249752.05731201171875, 187151.6824951171875 ], [ 249796.7125244140625, 187119.20587158203125 ], [ 249841.36767578125, 187094.84869384765625 ], [ 249833.24847412109375, 187046.1339111328125 ], [ 249845.42730712890625, 186977.12127685546875 ], [ 249938.797119140625, 186940.5853271484375 ], [ 250020.72711181640625, 186928.71051025390625 ] ], [ [ 249670.8660888671875, 187362.77947998046875 ], [ 249829.1890869140625, 187430.43890380859375 ], [ 249888.72930908203125, 187489.9791259765625 ], [ 249942.856689453125, 187554.93212890625 ], [ 249986.15869140625, 187636.123291015625 ], [ 250007.8096923828125, 187711.90167236328125 ], [ 250013.22247314453125, 187841.80767822265625 ] ], [ [ 240004.00390625, 188569.8162841796875 ], [ 240013.13787841796875, 188510.4453125 ], [ 240010.85430908203125, 188448.79071044921875 ], [ 240045.10687255859375, 188398.5537109375 ], [ 240141.013916015625, 188348.31671142578125 ], [ 240193.53448486328125, 188279.8115234375 ] ], [ [ 242917.788330078125, 188636.46649169921875 ], [ 242902.56488037109375, 188563.394287109375 ], [ 242926.92230224609375, 188505.54571533203125 ], [ 242957.36907958984375, 188462.9202880859375 ], [ 242978.68170166015625, 188429.42889404296875 ], [ 242975.6370849609375, 188389.84808349609375 ], [ 242960.4136962890625, 188335.04412841796875 ], [ 242951.27972412109375, 188240.6593017578125 ] ], [ [ 242917.788330078125, 188636.46649169921875 ], [ 242972.59228515625, 188587.751708984375 ], [ 243045.66448974609375, 188535.9923095703125 ], [ 243082.20050048828125, 188502.50091552734375 ], [ 243112.64727783203125, 188447.6968994140625 ], [ 243182.6746826171875, 188353.31207275390625 ], [ 243213.12127685546875, 188313.73150634765625 ], [ 243274.01470947265625, 188277.19549560546875 ], [ 243404.93548583984375, 188268.061279296875 ], [ 243471.91827392578125, 188286.32928466796875 ], [ 243563.25830078125, 188268.061279296875 ], [ 243593.705078125, 188222.39129638671875 ], [ 243608.92828369140625, 188152.3638916015625 ], [ 243633.28570556640625, 188097.55987548828125 ] ], [ [ 241027.268310546875, 188904.2244873046875 ], [ 240957.24090576171875, 188776.34832763671875 ], [ 240893.30291748046875, 188703.27630615234375 ], [ 240832.40948486328125, 188672.8297119140625 ], [ 240750.20330810546875, 188657.6063232421875 ], [ 240710.6226806640625, 188636.29351806640625 ], [ 240710.6226806640625, 188575.40008544921875 ], [ 240835.4541015625, 188407.94329833984375 ], [ 241072.9384765625, 188170.4591064453125 ], [ 241167.3231201171875, 188079.11907958984375 ], [ 241209.948486328125, 188006.046875 ], [ 241161.23388671875, 187887.3046875 ], [ 241152.09967041015625, 187835.5452880859375 ], [ 241191.68048095703125, 187716.80328369140625 ], [ 241231.26129150390625, 187655.909912109375 ], [ 241283.02069091796875, 187534.12310791015625 ], [ 241331.73529052734375, 187433.64892578125 ], [ 241410.896728515625, 187345.353515625 ], [ 241505.281494140625, 187287.5048828125 ], [ 241791.48052978515625, 187107.86932373046875 ], [ 241904.13330078125, 187053.0653076171875 ], [ 242013.74127197265625, 187004.35052490234375 ], [ 242135.528076171875, 186937.36767578125 ], [ 242169.01947021484375, 186894.74249267578125 ], [ 242196.4215087890625, 186742.5089111328125 ], [ 242178.15350341796875, 186620.72210693359375 ], [ 242126.39410400390625, 186526.3372802734375 ], [ 242086.8134765625, 186471.5333251953125 ], [ 242016.78607177734375, 186410.639892578125 ], [ 241977.205322265625, 186386.282470703125 ], [ 241901.08868408203125, 186358.8804931640625 ], [ 241834.10589599609375, 186322.344482421875 ], [ 241821.9271240234375, 186243.18310546875 ], [ 241864.552490234375, 186182.2896728515625 ], [ 241940.6693115234375, 186164.021484375 ], [ 242028.9647216796875, 186136.6195068359375 ], [ 242102.03668212890625, 186100.08349609375 ], [ 242141.61749267578125, 186066.59210205078125 ], [ 242165.97491455078125, 186027.011474609375 ], [ 242187.2874755859375, 185978.29669189453125 ], [ 242187.2874755859375, 185926.53729248046875 ], [ 242175.10888671875, 185807.7952880859375 ] ], [ [ 241027.268310546875, 188904.2244873046875 ], [ 241142.96588134765625, 188898.13507080078125 ], [ 241219.08251953125, 188867.6884765625 ], [ 241261.7078857421875, 188825.0631103515625 ], [ 241279.97589111328125, 188764.169677734375 ], [ 241322.601318359375, 188700.231689453125 ], [ 241362.181884765625, 188669.784912109375 ], [ 241420.03070068359375, 188657.6063232421875 ], [ 241465.70068359375, 188645.42767333984375 ], [ 241502.23687744140625, 188611.936279296875 ], [ 241523.54949951171875, 188581.489501953125 ], [ 241550.95147705078125, 188538.86407470703125 ], [ 241590.53228759765625, 188493.194091796875 ], [ 241633.15771484375, 188465.7921142578125 ], [ 241684.9171142578125, 188450.5687255859375 ], [ 241748.8551025390625, 188444.47930908203125 ], [ 241770.167724609375, 188426.2113037109375 ], [ 241788.4359130859375, 188398.809326171875 ], [ 241818.88250732421875, 188350.094482421875 ], [ 241837.1505126953125, 188295.29052734375 ], [ 241858.46331787109375, 188240.48651123046875 ], [ 241888.909912109375, 188200.9058837890625 ], [ 241934.57989501953125, 188158.2802734375 ], [ 242126.39410400390625, 187984.73431396484375 ], [ 242211.6448974609375, 187905.5728759765625 ], [ 242293.85107421875, 187823.36669921875 ], [ 242366.923095703125, 187786.8306884765625 ], [ 242424.77191162109375, 187735.0712890625 ], [ 242452.17388916015625, 187677.22247314453125 ], [ 242482.6204833984375, 187598.06109619140625 ], [ 242540.46929931640625, 187521.94427490234375 ], [ 242567.87127685546875, 187491.4976806640625 ], [ 242677.4794921875, 187467.14031982421875 ], [ 242921.0531005859375, 187485.4083251953125 ], [ 243009.3485107421875, 187476.2742919921875 ], [ 243118.95648193359375, 187433.64892578125 ], [ 243234.65411376953125, 187357.53228759765625 ], [ 243359.4854736328125, 187202.25408935546875 ], [ 243444.736328125, 187171.80731201171875 ], [ 243520.85308837890625, 187138.31591796875 ], [ 243596.9697265625, 187101.7799072265625 ], [ 243666.9970703125, 187016.52911376953125 ], [ 243718.75653076171875, 186934.3231201171875 ], [ 243758.3372802734375, 186858.206298828125 ], [ 243788.78387451171875, 186794.268310546875 ], [ 243807.0518798828125, 186766.86627197265625 ], [ 243813.14129638671875, 186721.1962890625 ], [ 243797.91790771484375, 186657.25811767578125 ], [ 243776.60528564453125, 186527.352294921875 ], [ 243752.2479248046875, 186446.160888671875 ], [ 243727.8905029296875, 186409.6248779296875 ], [ 243752.2479248046875, 186344.672119140625 ], [ 243813.14129638671875, 186263.48089599609375 ], [ 243882.1536865234375, 186206.6470947265625 ], [ 243951.16632080078125, 186149.8131103515625 ], [ 244012.0596923828125, 186076.7410888671875 ], [ 244081.07232666015625, 185995.5499267578125 ], [ 244146.02508544921875, 185918.41827392578125 ], [ 244178.501708984375, 185877.82269287109375 ], [ 244206.918701171875, 185820.9888916015625 ], [ 244292.1693115234375, 185723.559326171875 ], [ 244401.77752685546875, 185674.8447265625 ], [ 244466.73052978515625, 185670.78509521484375 ], [ 244515.44512939453125, 185634.24908447265625 ], [ 244556.04071044921875, 185569.29608154296875 ], [ 244608.81512451171875, 185520.581298828125 ], [ 244683.25347900390625, 185472.74468994140625 ] ], [ [ 242628.544677734375, 188907.44207763671875 ], [ 242683.34869384765625, 188886.1292724609375 ], [ 242722.92950439453125, 188858.727294921875 ], [ 242783.8228759765625, 188770.431884765625 ], [ 242799.04608154296875, 188733.8958740234375 ], [ 242872.1182861328125, 188673.00250244140625 ], [ 242917.788330078125, 188636.46649169921875 ] ], [ [ 242628.544677734375, 188907.44207763671875 ], [ 242698.57208251953125, 188959.20147705078125 ], [ 242765.55487060546875, 188959.20147705078125 ], [ 242823.40350341796875, 188968.33551025390625 ], [ 242832.5374755859375, 189001.826904296875 ], [ 242832.5374755859375, 189035.31829833984375 ] ], [ [ 249176.06268310546875, 189042.64288330078125 ], [ 249082.2301025390625, 188986.603515625 ], [ 249029.4556884765625, 188962.24609375 ], [ 248964.502685546875, 188921.6505126953125 ], [ 248907.66888427734375, 188868.87628173828125 ], [ 248806.17987060546875, 188832.340087890625 ], [ 248712.81011962890625, 188787.68511962890625 ], [ 248611.32110595703125, 188767.3873291015625 ], [ 248497.6533203125, 188674.01727294921875 ], [ 248420.521728515625, 188548.17108154296875 ], [ 248359.6282958984375, 188471.03948974609375 ], [ 248355.5687255859375, 188397.96728515625 ], [ 248631.618896484375, 188215.287109375 ], [ 248765.58428955078125, 188089.440673828125 ], [ 248932.02630615234375, 188024.4876708984375 ], [ 249009.15789794921875, 188036.66650390625 ], [ 249114.70648193359375, 188052.90472412109375 ], [ 249163.42108154296875, 188016.36871337890625 ], [ 249159.3616943359375, 187951.41571044921875 ], [ 249204.01690673828125, 187874.28411865234375 ], [ 249277.08892822265625, 187780.914306640625 ], [ 249362.3397216796875, 187728.139892578125 ], [ 249431.35211181640625, 187667.24652099609375 ], [ 249512.54327392578125, 187606.35308837890625 ], [ 249557.198486328125, 187545.459716796875 ], [ 249670.8660888671875, 187362.77947998046875 ] ], [ [ 239999.4368896484375, 189101.87249755859375 ], [ 240045.10687255859375, 189005.96527099609375 ], [ 240081.64288330078125, 188946.59429931640625 ], [ 240104.4779052734375, 188884.939697265625 ], [ 240106.761474609375, 188839.26971435546875 ], [ 240099.910888671875, 188777.6151123046875 ], [ 240079.3594970703125, 188743.36248779296875 ], [ 239997.1533203125, 188718.24407958984375 ] ], [ [ 249609.92987060546875, 189697.3804931640625 ], [ 249546.401123046875, 189762.70330810546875 ], [ 249525.8494873046875, 189811.51312255859375 ], [ 249505.298095703125, 189888.581298828125 ], [ 249502.7291259765625, 189924.5465087890625 ], [ 249518.1427001953125, 189956.6583251953125 ], [ 249542.5477294921875, 189972.0718994140625 ], [ 249599.06427001953125, 189974.64093017578125 ], [ 249650.443115234375, 189964.3651123046875 ], [ 249677.4171142578125, 189950.23590087890625 ], [ 249687.69268798828125, 189929.684326171875 ] ], [ [ 249687.69268798828125, 189929.684326171875 ], [ 249702.00628662109375, 189843.86627197265625 ] ], [ [ 249687.69268798828125, 189929.684326171875 ], [ 249709.5286865234375, 189970.7874755859375 ], [ 249739.07147216796875, 190001.61468505859375 ] ], [ [ 242573.74072265625, 189988.2999267578125 ], [ 242640.72332763671875, 189915.2279052734375 ], [ 242683.34869384765625, 189766.03887939453125 ], [ 242698.57208251953125, 189692.9669189453125 ], [ 242710.75067138671875, 189616.85009765625 ], [ 242707.70611572265625, 189495.0634765625 ], [ 242689.4381103515625, 189397.6339111328125 ], [ 242689.4381103515625, 189269.75787353515625 ], [ 242683.34869384765625, 189214.95367431640625 ], [ 242643.76812744140625, 189151.01568603515625 ], [ 242588.96392822265625, 189090.122314453125 ], [ 242561.5618896484375, 189053.5863037109375 ], [ 242552.42791748046875, 189023.1395263671875 ], [ 242561.5618896484375, 188968.33551025390625 ], [ 242585.9193115234375, 188928.75469970703125 ], [ 242628.544677734375, 188907.44207763671875 ] ], [ [ 240271.4290771484375, 189993.455078125 ], [ 240230.325927734375, 189904.398681640625 ], [ 240205.20751953125, 189835.89349365234375 ], [ 240182.37249755859375, 189762.82147216796875 ], [ 240154.97027587890625, 189701.1668701171875 ], [ 240111.58392333984375, 189653.21331787109375 ], [ 239990.55828857421875, 189605.25970458984375 ] ], [ [ 240722.581298828125, 189997.43389892578125 ], [ 240765.20672607421875, 189860.4237060546875 ], [ 240804.7874755859375, 189796.4857177734375 ], [ 240905.261474609375, 189726.45831298828125 ], [ 240953.976318359375, 189680.788330078125 ], [ 241014.86968994140625, 189610.76092529296875 ], [ 241054.4503173828125, 189580.3140869140625 ], [ 241161.013671875, 189492.0186767578125 ], [ 241304.11328125, 189409.81268310546875 ], [ 241383.27471923828125, 189358.05328369140625 ], [ 241453.3021240234375, 189300.20452880859375 ], [ 241611.6248779296875, 189263.66851806640625 ], [ 241791.260498046875, 189230.1771240234375 ], [ 241897.82391357421875, 189221.0430908203125 ], [ 241992.20867919921875, 189221.0430908203125 ], [ 242077.45947265625, 189202.77508544921875 ], [ 242120.08489990234375, 189190.5963134765625 ], [ 242226.6483154296875, 189166.23907470703125 ], [ 242281.4522705078125, 189123.61370849609375 ], [ 242333.21173095703125, 189105.345703125 ], [ 242348.43511962890625, 189084.03289794921875 ], [ 242333.21173095703125, 189041.407470703125 ], [ 242314.9437255859375, 189017.05029296875 ], [ 242257.09490966796875, 188962.24609375 ], [ 242235.78228759765625, 188931.79949951171875 ], [ 242226.6483154296875, 188867.861328125 ] ], [ [ 240591.11932373046875, 190002.58929443359375 ], [ 240611.6708984375, 189940.9346923828125 ], [ 240636.78948974609375, 189904.398681640625 ], [ 240636.78948974609375, 189872.42950439453125 ], [ 240611.6708984375, 189776.52252197265625 ], [ 240607.1038818359375, 189744.55352783203125 ], [ 240810.335693359375, 189463.68267822265625 ], [ 240860.57269287109375, 189392.89410400390625 ], [ 240887.97467041015625, 189331.239501953125 ], [ 240903.95928955078125, 189265.01788330078125 ], [ 240940.49530029296875, 189182.8118896484375 ], [ 241050.103271484375, 189109.73968505859375 ], [ 241068.37127685546875, 189077.77069091796875 ], [ 241072.9384765625, 189002.41510009765625 ], [ 241027.268310546875, 188904.2244873046875 ] ], [ [ 246132.959716796875, 190003.5233154296875 ], [ 246084.2451171875, 189893.91510009765625 ], [ 246038.5750732421875, 189836.0662841796875 ], [ 246014.21771240234375, 189750.815673828125 ], [ 245959.41351318359375, 189629.0289306640625 ], [ 245941.1455078125, 189455.48272705078125 ], [ 245928.9669189453125, 189367.18731689453125 ], [ 245913.7435302734375, 189309.3385009765625 ], [ 245940.13067626953125, 189185.52191162109375 ], [ 245988.84527587890625, 189104.3306884765625 ], [ 245992.9049072265625, 189051.5565185546875 ], [ 245996.9644775390625, 188958.1865234375 ], [ 245952.309326171875, 188876.9954833984375 ], [ 245879.2373046875, 188706.493896484375 ], [ 245810.22467041015625, 188641.5408935546875 ], [ 245793.98651123046875, 188600.9453125 ], [ 245802.105712890625, 188535.9923095703125 ], [ 245883.296875, 188466.97991943359375 ], [ 245944.1903076171875, 188377.66949462890625 ], [ 246017.2623291015625, 188199.04888916015625 ], [ 246021.3218994140625, 188077.2620849609375 ], [ 245996.9644775390625, 187987.95172119140625 ], [ 245988.84527587890625, 187914.87969970703125 ], [ 246053.79827880859375, 187797.15252685546875 ], [ 246130.92987060546875, 187671.30609130859375 ], [ 246175.5850830078125, 187590.11492919921875 ], [ 246244.59771728515625, 187476.44708251953125 ], [ 246289.252685546875, 187379.01788330078125 ], [ 246366.384521484375, 187232.87371826171875 ], [ 246459.7542724609375, 187107.02728271484375 ], [ 246512.5286865234375, 186997.41912841796875 ], [ 246589.6602783203125, 186839.0963134765625 ], [ 246654.61328125, 186697.01171875 ], [ 246703.327880859375, 186575.22491455078125 ], [ 246812.93609619140625, 186449.37847900390625 ], [ 246934.722900390625, 186356.00872802734375 ], [ 247052.4500732421875, 186217.98370361328125 ], [ 247072.7479248046875, 186169.2689208984375 ], [ 247084.926513671875, 186043.4224853515625 ], [ 247129.58172607421875, 185909.45709228515625 ], [ 247275.72589111328125, 185824.206298828125 ], [ 247523.35888671875, 185820.146728515625 ] ] ] } },
{ "type": "Feature", "properties": { "Id": 0, "Name": "B359", "layer": "Roads", "path": "C:/Users/GAMER/Desktop/Shape Files to Submit/Roads.shp" }, "geometry": { "type": "MultiLineString", "coordinates": [ [ [ 244828.382763742120005, 190006.258107391535304 ], [ 244895.365501815656899, 189887.51598080660915 ], [ 244934.94621067729895, 189835.756592295219889 ], [ 244965.392909801652422, 189808.354563083325047 ], [ 244977.571589451370528, 189777.907863959000679 ], [ 244995.83960892597679, 189756.59517457196489 ], [ 245004.97361866326537, 189732.237815272470471 ], [ 245020.196968225442106, 189701.791116148146102 ], [ 245023.241638137871632, 189671.34441702379263 ], [ 245023.241638137871632, 189643.942387811897788 ], [ 245023.241638137871632, 189619.585028512432473 ], [ 245008.018288575724, 189586.093659475649474 ], [ 244980.616259363800054, 189552.602290438895579 ], [ 244950.169560239475686, 189522.155591314542107 ], [ 244904.499511552974582, 189494.753562102647265 ], [ 244871.008142516191583, 189458.21752315343474 ], [ 244822.293423917260952, 189385.145445255038794 ], [ 244776.623375230730744, 189333.386056743649533 ], [ 244770.534035405871691, 189299.894687706866534 ], [ 244755.310685843694955, 189235.956619545759168 ], [ 244746.176676106406376, 189190.286570859258063 ], [ 244737.042666369117796, 189150.705861997616012 ], [ 244737.042666369117796, 189095.901803573826328 ], [ 244743.132006193976849, 189044.142415062437067 ], [ 244743.132006193976849, 188983.249016813759226 ], [ 244730.953326544200536, 188934.534298214799492 ], [ 244715.7299769820238, 188861.462220316374442 ], [ 244709.640637157164747, 188812.747501717443811 ], [ 244706.59596724473522, 188742.720093731477391 ], [ 244718.774646894453326, 188694.005375132517656 ], [ 244733.997996456630062, 188639.201316708727973 ], [ 244758.355355756095378, 188581.352588372479659 ], [ 244797.936064617737429, 188514.369850298942765 ], [ 244840.561443391809007, 188444.342442312947242 ], [ 244871.008142516133375, 188386.493713976728031 ], [ 244889.276161990739638, 188349.957675027515506 ], [ 244919.72286111509311, 188286.019606866408139 ], [ 244950.169560239417478, 188237.304888267448405 ], [ 244971.482249626453267, 188194.679509493376827 ], [ 244998.884278838377213, 188136.830781157128513 ], [ 245017.152298312983476, 188078.982052820909303 ], [ 245017.152298312983476, 188030.267334221949568 ], [ 245032.375647875131108, 187978.507945710589411 ], [ 245041.509657612448791, 187920.659217374341097 ], [ 245071.956356736773159, 187853.676479300804203 ], [ 245084.135036386520369, 187804.961760701844469 ], [ 245084.135036386520369, 187756.247042102913838 ], [ 245065.867016911914106, 187701.44298367909505 ], [ 245047.598997437307844, 187658.817604905023472 ], [ 245047.598997437307844, 187631.415575693128631 ], [ 245078.045696561632212, 187573.566847356880317 ], [ 245145.028434635227313, 187448.735380947095109 ], [ 245181.564473584439838, 187372.618633136240533 ], [ 245193.743153234187048, 187339.127264099486638 ], [ 245215.055842621222837, 187284.32320567566785 ], [ 245236.368532008258626, 187229.519147251878167 ], [ 245242.457871833117679, 187192.983108302665642 ], [ 245242.457871833117679, 187104.687680842092959 ], [ 245224.189852358511416, 187065.106971980450908 ], [ 245205.921832883905154, 187010.30291355663212 ], [ 245132.849754985509207, 186949.40951530795428 ], [ 245078.04569656169042, 186906.784136533882702 ], [ 245050.643667349795578, 186885.471447146846913 ], [ 245029.330977962759789, 186858.069417934952071 ], [ 245014.107628400583053, 186821.533378985739546 ], [ 245001.928948750835843, 186766.729320561920758 ], [ 244995.83960892597679, 186733.237951525166864 ], [ 244968.437579714081949, 186696.701912575954339 ], [ 244941.035550502158003, 186675.38922318891855 ], [ 244904.499511552974582, 186663.21054353917134 ], [ 244843.606113304296741, 186654.076533801882761 ], [ 244816.204084092372796, 186626.674504589958815 ], [ 244779.668045143189374, 186596.227805465634447 ], [ 244755.310685843694955, 186562.736436428851448 ], [ 244740.087336281547323, 186507.932378005061764 ], [ 244730.95332654422964, 186468.351669143419713 ], [ 244724.863986719370587, 186422.681620456918608 ], [ 244724.863986719370587, 186361.788222208240768 ], [ 244694.417287595017115, 186325.252183259028243 ], [ 244679.193938032869482, 186264.358785010350402 ], [ 244691.372617682587588, 186211.584506528161 ], [ 244752.266015931265429, 186150.69110827948316 ], [ 244784.742494997248286, 186053.261671081592795 ], [ 244821.278533946431708, 185976.130033299938077 ], [ 244813.159414179943269, 185898.99839551828336 ], [ 244805.040294413454831, 185809.688078086910537 ], [ 244809.099854296713602, 185748.794679838232696 ], [ 244784.742494997248286, 185700.079961239272961 ], [ 244727.908656631800113, 185667.603482173319208 ], [ 244711.670417098823236, 185635.127003107365454 ], [ 244699.491737449076027, 185594.531404274923261 ], [ 244699.491737449076027, 185562.054925208940404 ], [ 244695.432177565846359, 185509.280646726751002 ], [ 244683.25349791609915, 185472.74460777756758 ], [ 244675.134378149610711, 185424.029889178607846 ], [ 244768.504255464242306, 185314.421772330999374 ], [ 244784.742494997248286, 185241.349694432574324 ], [ 244780.682935113989515, 185135.801137468224624 ], [ 244764.444695581012638, 184961.240062488679541 ], [ 244683.25349791609915, 184819.155466575088212 ], [ 244581.764500834979117, 184705.487789844250074 ], [ 244549.288021769025363, 184652.713511362060672 ], [ 244520.871102586301276, 184583.700993346894393 ], [ 244524.930662469560048, 184498.450235798751237 ], [ 244561.466701418743469, 184372.603879418136785 ], [ 244646.717458966915729, 184258.936202687269542 ], [ 244662.955698499892605, 184129.030286423425423 ], [ 244654.836578733404167, 184047.839088758541038 ], [ 244646.717458966915729, 183986.945690509863198 ], [ 244610.181420017703203, 183958.528771327139111 ], [ 244565.52626130200224, 183921.992732377926586 ], [ 244516.811542703071609, 183881.397133545484394 ], [ 244500.573303170065628, 183844.861094596271869 ], [ 244468.096824104111874, 183804.265495763829676 ], [ 244431.560785154899349, 183775.84857658110559 ], [ 244382.846066555968719, 183747.431657398410607 ], [ 244342.250467723526526, 183723.074298098916188 ], [ 244305.714428774314001, 183666.240459733497119 ], [ 244196.10631192670553, 183495.738944637181703 ], [ 244163.629832860751776, 183418.607306855526986 ], [ 244118.974674145050813, 183373.952148139826022 ], [ 244054.021716013114201, 183325.237429540895391 ], [ 244017.485677063901676, 183272.463151058705989 ], [ 243989.068757881206693, 183175.033713860815624 ], [ 243960.651838698482607, 183073.544716779695591 ], [ 243940.354039282246958, 182984.234399348293664 ], [ 243924.115799749270082, 182911.162321449897718 ], [ 243911.937120099551976, 182793.435084835771704 ], [ 243907.877560216293205, 182712.243887170887319 ], [ 243915.996679982781643, 182651.350488922209479 ], [ 243932.23491951575852, 182594.516650556761306 ], [ 243928.175359632528853, 182525.504132541595027 ], [ 243924.115799749270082, 182440.253374993451871 ], [ 243932.23491951575852, 182355.002617445308715 ], [ 243980.949638114718255, 182261.632740130706225 ], [ 244070.259955546091078, 182245.394500597729348 ], [ 244131.153353794768918, 182237.275380831240909 ], [ 244151.451153211004566, 182212.91802153174649 ], [ 244163.629832860751776, 182139.845943633350544 ], [ 244200.165871809935197, 182005.880467486247653 ], [ 244236.701910759147722, 181924.689269821363268 ], [ 244301.654868891084334, 181859.736311689426657 ], [ 244354.429147373244632, 181806.962033207237255 ], [ 244362.548267139733071, 181746.068634958588518 ], [ 244330.071788073779317, 181648.639197760698153 ], [ 244285.416629358078353, 181591.80535939524998 ], [ 244232.642350875918055, 181559.328880329296226 ], [ 244196.10631192670553, 181518.733281496854033 ], [ 244163.629832860751776, 181478.137682664411841 ], [ 244143.332033444516128, 181425.363404182222439 ], [ 244074.319515429349849, 181299.517047801607987 ], [ 244017.485677063901676, 181181.789811187511077 ], [ 243952.532718931994168, 181145.253772238298552 ], [ 243871.34152126708068, 181133.075092588580446 ], [ 243794.209883485425962, 181137.134652471810114 ], [ 243737.376045120006893, 181120.896412938833237 ], [ 243688.661326521076262, 181092.47949375610915 ], [ 243652.125287571863737, 181035.645655390690081 ], [ 243599.351009089674335, 180938.216218192799715 ], [ 243550.636290490743704, 180869.203700177633436 ], [ 243473.504652709059883, 180808.310301928955596 ], [ 243412.611254460411146, 180788.012502512749052 ], [ 243270.526658546819817, 180755.536023446766194 ], [ 243221.811939947889186, 180751.476463563536527 ], [ 243128.442062633228488, 180723.05954438081244 ], [ 243083.786903917556629, 180670.285265898623038 ], [ 243022.893505668878788, 180568.796268817503005 ], [ 242978.238346953177825, 180438.890352553658886 ], [ 242970.119227186689386, 180337.401355472538853 ], [ 242982.297906836407492, 180235.91235839141882 ], [ 243031.012625435367227, 180101.94688224431593 ], [ 243091.906023684045067, 179996.398325279908022 ] ] ] } },
{ "type": "Feature", "properties": { "Id": 0, "Name": "A22", "layer": "Roads", "path": "C:/Users/GAMER/Desktop/Shape Files to Submit/Roads.shp" }, "geometry": { "type": "MultiLineString", "coordinates": [ [ [ 248043.445470452599693, 190008.818177039443981 ], [ 248047.505030335858464, 189915.448299724812387 ], [ 248088.100629168300657, 189842.376221826387336 ], [ 248136.815347767231287, 189769.30414392799139 ], [ 248165.232266949955374, 189684.053386379848234 ], [ 248197.708746015909128, 189619.100428247911623 ], [ 248222.066105315374443, 189562.266589882492553 ], [ 248238.30434484835132, 189525.730550933280028 ], [ 248303.257302980287932, 189546.028350349515676 ], [ 248331.674222163012018, 189586.623949181957869 ], [ 248327.614662279753247, 189627.219548014400061 ], [ 248327.614662279753247, 189684.053386379848234 ], [ 248339.793341929500457, 189732.768104978778865 ], [ 248339.793341929500457, 189793.661503227456706 ], [ 248335.733782046241686, 189850.495341592904879 ], [ 248343.852901812730124, 189907.329179958323948 ], [ 248368.21026111219544, 189947.92477879076614 ], [ 248416.924979711155174, 189960.10345844051335 ], [ 248469.699258193344576, 189968.222578207001789 ], [ 248538.711776208510855, 189947.92477879076614 ], [ 248571.188255274464609, 189927.626979374559596 ], [ 248619.90297387339524, 189907.329179958323948 ], [ 248636.141213406372117, 189895.150500308576738 ], [ 248652.379452939378098, 189858.614461359393317 ], [ 248640.200773289630888, 189805.840182877203915 ], [ 248628.022093639883678, 189765.244584044732619 ], [ 248623.962533756654011, 189736.827664862037636 ], [ 248644.260333172860555, 189679.993826496589463 ], [ 248644.260333172860555, 189566.326149765722221 ], [ 248628.022093639883678, 189525.730550933280028 ], [ 248615.843413990165573, 189464.837152684602188 ], [ 248591.486054690700257, 189412.062874202412786 ], [ 248579.307375040953048, 189371.467275369970594 ], [ 248567.128695391205838, 189338.99079630401684 ], [ 248534.652216325252084, 189274.037838172080228 ], [ 248518.413976792275207, 189225.323119573149597 ], [ 248510.294857025786769, 189184.727520740707405 ], [ 248498.116177376039559, 189127.893682375259232 ], [ 248498.116177376039559, 189083.238523659558268 ], [ 248494.056617492809892, 189038.583364943886409 ], [ 248514.35441690904554, 188997.987766111415112 ], [ 248542.771336091740523, 188957.39216727897292 ], [ 248559.009575624717399, 188941.153927745996043 ], [ 248619.90297387339524, 188916.796568446530728 ], [ 248672.677252355584642, 188933.034807979507605 ], [ 248701.094171538308728, 188957.39216727897292 ], [ 248741.689770370750921, 188965.511287045461359 ], [ 248798.523608736199094, 188916.796568446530728 ], [ 248831.000087802152848, 188920.856128329760395 ], [ 248835.059647685382515, 188941.153927745996043 ], [ 248859.417006984876934, 188977.689966695208568 ], [ 248875.655246517853811, 188997.987766111415112 ], [ 248928.429525000043213, 188997.987766111415112 ], [ 248956.846444182738196, 188993.928206228185445 ], [ 248981.203803482203512, 189014.226005644391989 ], [ 248997.442043015209492, 189042.642924827116076 ], [ 249025.858962197904475, 189058.881164360092953 ], [ 249078.633240680093877, 189062.940724243351724 ], [ 249111.109719746047631, 189054.821604476863286 ], [ 249176.062677877984243, 189042.642924827116076 ], [ 249204.479597060708329, 189042.642924827116076 ], [ 249249.134755776380189, 189062.940724243351724 ], [ 249261.313435426127398, 189071.059844009840162 ], [ 249273.492115075874608, 189087.298083542817039 ], [ 249277.551674959104275, 189123.834122492029564 ], [ 249265.372995309357066, 189168.489281207730528 ], [ 249249.134755776380189, 189196.906200390425511 ], [ 249236.956076126662083, 189241.561359106126474 ], [ 249224.777396476914873, 189286.216517821827438 ], [ 249228.836956360173644, 189306.514317238063086 ], [ 249253.19431565963896, 189347.109916070505278 ], [ 249269.432555192615837, 189359.288595720223384 ], [ 249301.909034258569591, 189379.586395136459032 ], [ 249338.445073207782116, 189387.705514902947471 ], [ 249370.92155227373587, 189403.943754435924347 ], [ 249395.278911573201185, 189432.360673618648434 ], [ 249403.398031339689624, 189460.777592801372521 ], [ 249419.636270872695604, 189497.313631750555942 ], [ 249500.827468537579989, 189574.445269532239763 ], [ 249565.780426669516601, 189631.279107897658832 ], [ 249606.376025501958793, 189684.053386379848234 ], [ 249622.61426503493567, 189744.946784628526075 ], [ 249634.79294468468288, 189797.721063110715477 ], [ 249683.50766328361351, 189838.316661943157669 ], [ 249724.103262116055703, 189850.495341592904879 ], [ 249772.817980715015437, 189822.078422410180792 ], [ 249789.056220247992314, 189793.661503227456706 ], [ 249801.23489989771042, 189696.23206602956634 ], [ 249878.366537679365138, 189619.100428247911623 ], [ 249914.902576628577663, 189537.909230583027238 ], [ 249987.974654527002713, 189440.479793385136873 ], [ 250028.570253359444905, 189371.467275369970594 ], [ 250020.451133592956467, 189375.526835253229365 ] ] ] } }
]
}
